[{"OBJECT_NAME":"STARLINK-31693","OBJECT_ID":"2024-065W","EPOCH":"2026-03-09T20:24:38.718432","MEAN_MOTION":15.301892,"ECCENTRICITY":0.00011987,"INCLINATION":53.16,"RA_OF_ASC_NODE":280.9499,"ARG_OF_PERICENTER":88.9277,"MEAN_ANOMALY":271.1861,"EPHEMERIS_TYPE":0,"CLASSIFICATION_TYPE":"U","NORAD_CAT_ID":59441,"ELEMENT_SET_NO":999,"REV_AT_EPOCH":10895,"BSTAR":1.784999e-5,"MEAN_MOTION_DOT":1.69e-6,"MEAN_MOTION_DDOT":0},{"OBJECT_NAME":"TRANSPORTER-1 OBJECT AA","OBJECT_ID":"2021-006AA","EPOCH":"2026-03-09T22:58:14.761920","MEAN_MOTION":15.29982294,"ECCENTRICITY":0.00086604,"INCLINATION":97.2381,"RA_OF_ASC_NODE":112.457,"ARG_OF_PERICENTER":185.709,"MEAN_ANOMALY":174.4054,"EPHEMERIS_TYPE":0,"CLASSIFICATION_TYPE":"U","NORAD_CAT_ID":47437,"ELEMENT_SET_NO":999,"REV_AT_EPOCH":28414,"BSTAR":0.0002197941,"MEAN_MOTION_DOT":6.312e-5,"MEAN_MOTION_DDOT":0}]
